     2.10           G: GLONASS NAV DATA                     RINEX VERSION / TYPE
teqc  2015Jun23                         20210723 01:25:47UTCPGM / RUN BY / DATE
Linux 2.4.21-27.ELsmp|Opteron|gcc -static|Linux x86_64|=+   COMMENT
  2021     6    29    2.700835466385D-08                    CORR TO SYSTEM TIME
                                                            END OF HEADER
 5 21  6 30  8 15  0.0 7.448345422745D-05 9.094947017729D-13 2.880000000000D+04
   -2.421297363281D+03 2.000904083252D-01-9.313225746155D-10 0.000000000000D+00
    2.522336035156D+04-4.067077636719D-01 1.862645149231D-09 1.000000000000D+00
    3.040421386719D+03 3.547430038452D+00 9.313225746155D-10 0.000000000000D+00
18 21  6 30  8 15  0.0 8.177291601896D-05 9.094947017729D-13 2.880000000000D+04
   -2.206741259766D+04-1.699485778809D-01-9.313225746155D-10 0.000000000000D+00
    1.263669287109D+04 3.622579574585D-01 1.862645149231D-09-3.000000000000D+00
    2.326887695312D+03-3.584352493286D+00 0.000000000000D+00 0.000000000000D+00
19 21  6 30  8 15  0.0-1.497128978372D-04-9.094947017729D-13 2.898000000000D+04
   -1.256708447266D+04-1.999913215637D+00-9.313225746155D-10 0.000000000000D+00
    1.445531835938D+04 1.172034263611D+00 2.793967723846D-09 3.000000000000D+00
    1.683474218750D+04-2.498485565186D+00-0.000000000000D+00 0.000000000000D+00
 6 21  6 30  8 15  0.0 2.006292343140D-04 9.094947017729D-13 2.904000000000D+04
    7.329232910156D+03 8.259582519531D-02-9.313225746155D-10 0.000000000000D+00
    1.878062597656D+04 2.140903472900D+00 0.000000000000D+00-4.000000000000D+00
   -1.564796386719D+04 2.607202529907D+00 1.862645149231D-09 0.000000000000D+00
16 21  6 30  8 45  0.0-1.715961843729D-05-0.000000000000D+00 3.060000000000D+04
    3.797495117188D+02-2.821920394897D+00-9.313225746155D-10 0.000000000000D+00
    1.204134179688D+04-1.221163749695D+00 0.000000000000D+00-1.000000000000D+00
   -2.251654736328D+04-6.895704269409D-01 2.793967723846D-09 0.000000000000D+00
 4 21  6 30  8 45  0.0 9.362585842609D-05 1.818989403546D-12 3.060000000000D+04
   -9.021242187500D+03-2.028331756592D-01-0.000000000000D+00 0.000000000000D+00
    1.075966308594D+04-2.906947135925D+00 2.793967723846D-09 6.000000000000D+00
    2.132699218750D+04 1.382231712341D+00-9.313225746155D-10 0.000000000000D+00
 6 21  6 30  8 45  0.0 2.006310969591D-04 9.094947017729D-13 3.060000000000D+04
    7.704166992188D+03 2.992715835571D-01-9.313225746155D-10 0.000000000000D+00
    2.199012744141D+04 1.397686004639D+00 9.313225746155D-10-4.000000000000D+00
   -1.041147216797D+04 3.173398017883D+00 1.862645149231D-09 0.000000000000D+00
 5 21  6 30  8 45  0.0 7.448531687260D-05 9.094947017729D-13 3.060000000000D+04
   -2.157102050781D+03 5.402755737305D-02-9.313225746155D-10 0.000000000000D+00
    2.369971337891D+04-1.271213531494D+00 2.793967723846D-09 1.000000000000D+00
    9.226056152344D+03 3.280951499939D+00 0.000000000000D+00 0.000000000000D+00
 9 21  6 30  8 45  0.0 4.991888999939D-07 1.818989403546D-12 3.060000000000D+04
    1.613364697266D+04-1.666851043701D+00-9.313225746155D-10 0.000000000000D+00
    1.432914453125D+04-8.233432769775D-01-0.000000000000D+00-2.000000000000D+00
   -1.352339111328D+04-2.863624572754D+00 1.862645149231D-09 0.000000000000D+00
18 21  6 30  8 45  0.0 8.177570998669D-05 9.094947017729D-13 3.060000000000D+04
   -2.165690771484D+04 6.022930145264D-01-0.000000000000D+00 0.000000000000D+00
    1.287944824219D+04-1.278047561646D-01 1.862645149231D-09-3.000000000000D+00
   -4.131521972656D+03-3.545197486877D+00 9.313225746155D-10 0.000000000000D+00
19 21  6 30  8 45  0.0-1.497119665146D-04-9.094947017729D-13 3.060000000000D+04
   -1.547833105469D+04-1.222711563110D+00-0.000000000000D+00 0.000000000000D+00
    1.651825537109D+04 1.074401855469D+00 2.793967723846D-09 3.000000000000D+00
    1.174428222656D+04-3.120820999146D+00-0.000000000000D+00 0.000000000000D+00
16 21  6 30  9 15  0.0-1.716054975986D-05-0.000000000000D+00 3.240000000000D+04
   -4.917938964844D+03-3.017045974731D+00-9.313225746155D-10 0.000000000000D+00
    1.018800048828D+04-8.193273544312D-01 0.000000000000D+00-1.000000000000D+00
   -2.287380468750D+04 2.955417633057D-01 1.862645149231D-09 0.000000000000D+00
18 21  6 30  9 15  0.0 8.177850395441D-05 9.094947017729D-13 3.240000000000D+04
   -2.001270800781D+04 1.186408042908D+00-0.000000000000D+00 0.000000000000D+00
    1.207302490234D+04-7.893772125244D-01 9.313225746155D-10-3.000000000000D+00
   -1.027135595703D+04-3.232638359070D+00 9.313225746155D-10 0.000000000000D+00
 6 21  6 30  9 15  0.0 2.006329596043D-04 9.094947017729D-13 3.240000000000D+04
    8.268294433594D+03 2.868442535400D-01-9.313225746155D-10 0.000000000000D+00
    2.374500244141D+04 5.428533554077D-01 1.862645149231D-09-4.000000000000D+00
   -4.371104980469D+03 3.494605064392D+00 9.313225746155D-10 0.000000000000D+00
 5 21  6 30  9 15  0.0 7.448624819517D-05 9.094947017729D-13 3.240000000000D+04
   -2.355144531250D+03-3.045997619629D-01-0.000000000000D+00 0.000000000000D+00
    2.073374707031D+04-1.991891860962D+00 2.793967723846D-09 1.000000000000D+00
    1.469956884766D+04 2.761330604553D+00-0.000000000000D+00 0.000000000000D+00
 9 21  6 30  9 15  0.0 5.019828677177D-07 1.818989403546D-12 3.240000000000D+04
    1.248198730469D+04-2.366660118103D+00-9.313225746155D-10 0.000000000000D+00
    1.287712988281D+04-7.510194778442D-01 0.000000000000D+00-2.000000000000D+00
   -1.808566015625D+04-2.172558784485D+00 2.793967723846D-09 0.000000000000D+00
19 21  6 30  9 15  0.0-1.497147604823D-04-9.094947017729D-13 3.240000000000D+04
   -1.696141503906D+04-4.330520629883D-01-0.000000000000D+00 0.000000000000D+00
    1.815900195312D+04 7.047729492188D-01 2.793967723846D-09 3.000000000000D+00
    5.745074707031D+03-3.501642227173D+00 0.000000000000D+00 0.000000000000D+00
20 21  6 30  9 15  0.0-5.172099918127D-05-0.000000000000D+00 3.318000000000D+04
   -2.011088378906D+03-2.115440368652D+00-0.000000000000D+00 0.000000000000D+00
    1.416703759766D+04 1.982397079468D+00 2.793967723846D-09 2.000000000000D+00
    2.112703271484D+04-1.526931762695D+00-9.313225746155D-10 0.000000000000D+00
 7 21  6 30  9 15  0.0-4.217401146889D-05-0.000000000000D+00 3.336000000000D+04
    1.200694335938D+04 6.724023818970D-01-9.313225746155D-10 0.000000000000D+00
    1.243084375000D+04 2.485952377319D+00 0.000000000000D+00 5.000000000000D+00
   -1.873878857422D+04 2.071474075317D+00 2.793967723846D-09 0.000000000000D+00
16 21  6 30  9 45  0.0-1.716148108244D-05-0.000000000000D+00 3.420000000000D+04
   -1.030239892578D+04-2.914996147156D+00-0.000000000000D+00 0.000000000000D+00
    9.128476074219D+03-3.566064834595D-01 0.000000000000D+00-1.000000000000D+00
   -2.146501318359D+04 1.259990692139D+00 1.862645149231D-09 0.000000000000D+00
18 21  6 30  9 45  0.0 8.178129792213D-05 9.094947017729D-13 3.420000000000D+04
   -1.754008984375D+04 1.514919281006D+00-0.000000000000D+00 0.000000000000D+00
    9.993537597656D+03-1.523971557617D+00 0.000000000000D+00-3.000000000000D+00
   -1.561889794922D+04-2.670523643494D+00 9.313225746155D-10 0.000000000000D+00
 6 21  6 30  9 45  0.0 2.006338909268D-04 9.094947017729D-13 3.420000000000D+04
    8.590211425781D+03 3.160667419434D-02-0.000000000000D+00 0.000000000000D+00
    2.394584472656D+04-3.096504211426D-01 2.793967723846D-09-4.000000000000D+00
    2.006790039062D+03 3.545985221863D+00 9.313225746155D-10 0.000000000000D+00
 5 21  6 30  9 45  0.0 7.448811084032D-05 9.094947017729D-13 3.420000000000D+04
   -3.338819824219D+03-8.042249679565D-01 0.000000000000D+00 0.000000000000D+00
    1.667000195312D+04-2.478652954102D+00 2.793967723846D-09 1.000000000000D+00
    1.903872558594D+04 2.028723716736D+00-9.313225746155D-10 0.000000000000D+00
 7 21  6 30  9 45  0.0-4.217401146889D-05 0.000000000000D+00 3.420000000000D+04
    1.337630468750D+04 8.113384246826D-01-9.313225746155D-10 0.000000000000D+00
    1.631177490234D+04 1.798378944397D+00 9.313225746155D-10 5.000000000000D+00
   -1.433292285156D+04 2.791954040527D+00 1.862645149231D-09 0.000000000000D+00
 9 21  6 30  9 45  0.0 5.047768354416D-07 1.818989403546D-12 3.420000000000D+04
    7.728798339844D+03-2.875530242920D+00-9.313225746155D-10 0.000000000000D+00
    1.174968017578D+04-4.729137420654D-01 0.000000000000D+00-2.000000000000D+00
   -2.124346923828D+04-1.313378334045D+00 2.793967723846D-09 0.000000000000D+00
19 21  6 30  9 45  0.0-1.497175544500D-04-9.094947017729D-13 3.420000000000D+04
   -1.709942578125D+04 2.538080215454D-01-0.000000000000D+00 0.000000000000D+00
    1.891204101562D+04 9.758090972900D-02 1.862645149231D-09 3.000000000000D+00
   -6.986337890625D+02-3.611512184143D+00 0.000000000000D+00 0.000000000000D+00
20 21  6 30  9 45  0.0-5.172193050385D-05-0.000000000000D+00 3.420000000000D+04
   -5.253408691406D+03-1.471725463867D+00 0.000000000000D+00 0.000000000000D+00
    1.772194189453D+04 1.919354438782D+00 2.793967723846D-09 2.000000000000D+00
    1.759835693359D+04-2.368324279785D+00-0.000000000000D+00 0.000000000000D+00
16 21  6 30 10 15  0.0-1.716241240501D-05-9.094947017729D-13 3.600000000000D+04
   -1.523452539062D+04-2.518807411194D+00-0.000000000000D+00 0.000000000000D+00
    8.877003906250D+03 6.107425689697D-02 0.000000000000D+00-1.000000000000D+00
   -1.839522998047D+04 2.129014968872D+00 9.313225746155D-10 0.000000000000D+00
18 21  6 30 10 15  0.0 8.178409188986D-05 9.094947017729D-13 3.600000000000D+04
   -1.472768359375D+04 1.563884735107D+00-0.000000000000D+00 0.000000000000D+00
    6.612011230469D+03-2.216500282288D+00 0.000000000000D+00-3.000000000000D+00
   -1.976100488281D+04-1.901887893677D+00 1.862645149231D-09 0.000000000000D+00
 6 21  6 30 10 15  0.0 2.006357535720D-04 0.000000000000D+00 3.600000000000D+04
    8.254045898438D+03-4.356679916382D-01-0.000000000000D+00 0.000000000000D+00
    2.269902490234D+04-1.048233985901D+00 2.793967723846D-09-4.000000000000D+00
    8.229681152344D+03 3.323476791382D+00 0.000000000000D+00 0.000000000000D+00
